[{"OBJECT_NAME":"STARLINK-2480","OBJECT_ID":"2021-027AX","EPOCH":"2026-03-10T00:00:02.999808","MEAN_MOTION":15.0892407,"ECCENTRICITY":0.00016687,"INCLINATION":53.0606,"RA_OF_ASC_NODE":150.1899,"ARG_OF_PERICENTER":123.9826,"MEAN_ANOMALY":133.8793,"EPHEMERIS_TYPE":0,"CLASSIFICATION_TYPE":"U","NORAD_CAT_ID":48137,"ELEMENT_SET_NO":999,"REV_AT_EPOCH":579,"BSTAR":0.0053933076,"MEAN_MOTION_DOT":0.00086813,"MEAN_MOTION_DDOT":0},{"OBJECT_NAME":"YAM-8","OBJECT_ID":"2025-052AW","EPOCH":"2026-03-09T17:32:32.161056","MEAN_MOTION":15.10898939,"ECCENTRICITY":0.00023693,"INCLINATION":97.7023,"RA_OF_ASC_NODE":329.5345,"ARG_OF_PERICENTER":152.6796,"MEAN_ANOMALY":207.4558,"EPHEMERIS_TYPE":0,"CLASSIFICATION_TYPE":"U","NORAD_CAT_ID":63254,"ELEMENT_SET_NO":999,"REV_AT_EPOCH":5424,"BSTAR":0.00047267461,"MEAN_MOTION_DOT":7.81e-5,"MEAN_MOTION_DDOT":0}]
